STARLINK-36626          
1 67603U 26018Q   26048.50002314 -.01868060  00000+0 -12766-1 0  9997
2 67603  97.2842 113.3383 0001504  83.9224 195.6248 15.77806754  4106
STARLINK-36605          
1 67604U 26018R   26048.46783789  .00290526  00000+0  18774-2 0  9994
2 67604  97.2843 113.2642 0000715  81.9755 278.1591 15.75260845  4128
STARLINK-36281          
1 67605U 26018S   26048.32553569  .00225418  00000+0  11427-2 0  9997
2 67605  97.2834 113.1504 0001922 109.9962 250.1513 15.80905414  4103
STARLINK-35843          
1 67606U 26018T   26048.50002314 -.00048222  00000+0 -32441-3 0  9993
2 67606  97.2843 113.3108 0001117  75.7770 138.7516 15.75179835  4152
STARLINK-36351          
1 67607U 26018U   26048.50002314 -.01867225  00000+0 -12840-1 0  9996
2 67607  97.2841 113.3431 0001518  96.4377 193.4172 15.77667224  4150
STARLINK-36411          
1 67608U 26018V   26048.32037720  .00186472  00000+0  95134-3 0  9990
2 67608  97.2839 113.1560 0001279 132.7615 227.3761 15.80867758  4106
STARLINK-36312          
1 67609U 26018W   26048.50002314 -.01817104  00000+0 -12749-1 0  9997
2 67609  97.2841 113.3488 0001405  84.0163 218.8385 15.77131511  4158
STARLINK-36387          
1 67610U 26018X   26048.31774567  .00146733  00000+0  75177-3 0  9990
2 67610  97.2842 113.1593 0001909 119.2732 240.8727 15.80879224  4102
STARLINK-36636          
1 67611U 26018Y   26048.50002314  .00092485  00000+0  47933-3 0  9999
2 67611  97.2847 113.3477 0001391  97.6765 225.1694 15.80776968  4112
STARLINK-36407          
1 67612U 26018Z   26048.44236460  .00483956  00000+0  23718-2 0  9995
2 67612  97.2838 113.2969 0000858 184.5804 175.5456 15.80980865  4178
STARLINK-36597          
1 67613U 26018AA  26048.31473905  .00133752  00000+0  68718-3 0  9995
2 67613  97.2843 113.1628 0001109  84.9969 275.1426 15.80853941  4102
NEONSAT-1A              
1 67614U 26019A   26048.40443949  .00003750  00000+0  24988-3 0  9997
2 67614  97.4103 172.7115 0012097 240.5681 119.4341 15.07617915  2769
