CCSDS_OMM_VERS = 2.0
CREATION_DATE  = 
ORIGINATOR     = 

OBJECT_NAME    = STARLINK-36626
OBJECT_ID      = 2026-018Q
CENTER_NAME    = EARTH
REF_FRAME      = TEME
TIME_SYSTEM    = UTC
MEAN_ELEMENT_THEORY = SGP/SGP4

EPOCH          = 2026-02-17T12:00:01.999296
MEAN_MOTION    = 15.77806754
ECCENTRICITY   = .0001504
INCLINATION    = 97.2842
RA_OF_ASC_NODE = 113.3383
ARG_OF_PERICENTER = 83.9224
MEAN_ANOMALY   = 195.6248

EPHEMERIS_TYPE = 0
CLASSIFICATION_TYPE = U
NORAD_CAT_ID   = 67603
ELEMENT_SET_NO = 999
REV_AT_EPOCH   = 410
BSTAR          = -.12766E-1
MEAN_MOTION_DOT = -.186806E-1
MEAN_MOTION_DDOT = 0

CCSDS_OMM_VERS = 2.0
CREATION_DATE  = 
ORIGINATOR     = 

OBJECT_NAME    = STARLINK-36605
OBJECT_ID      = 2026-018R
CENTER_NAME    = EARTH
REF_FRAME      = TEME
TIME_SYSTEM    = UTC
MEAN_ELEMENT_THEORY = SGP/SGP4

EPOCH          = 2026-02-17T11:13:41.193696
MEAN_MOTION    = 15.75260845
ECCENTRICITY   = .0000715
INCLINATION    = 97.2843
RA_OF_ASC_NODE = 113.2642
ARG_OF_PERICENTER = 81.9755
MEAN_ANOMALY   = 278.1591

EPHEMERIS_TYPE = 0
CLASSIFICATION_TYPE = U
NORAD_CAT_ID   = 67604
ELEMENT_SET_NO = 999
REV_AT_EPOCH   = 412
BSTAR          = .18774E-2
MEAN_MOTION_DOT = .290526E-2
MEAN_MOTION_DDOT = 0

CCSDS_OMM_VERS = 2.0
CREATION_DATE  = 
ORIGINATOR     = 

OBJECT_NAME    = STARLINK-36281
OBJECT_ID      = 2026-018S
CENTER_NAME    = EARTH
REF_FRAME      = TEME
TIME_SYSTEM    = UTC
MEAN_ELEMENT_THEORY = SGP/SGP4

EPOCH          = 2026-02-17T07:48:46.283616
MEAN_MOTION    = 15.80905414
ECCENTRICITY   = .0001922
INCLINATION    = 97.2834
RA_OF_ASC_NODE = 113.1504
ARG_OF_PERICENTER = 109.9962
MEAN_ANOMALY   = 250.1513

EPHEMERIS_TYPE = 0
CLASSIFICATION_TYPE = U
NORAD_CAT_ID   = 67605
ELEMENT_SET_NO = 999
REV_AT_EPOCH   = 410
BSTAR          = .11427E-2
MEAN_MOTION_DOT = .225418E-2
MEAN_MOTION_DDOT = 0

CCSDS_OMM_VERS = 2.0
CREATION_DATE  = 
ORIGINATOR     = 

OBJECT_NAME    = STARLINK-35843
OBJECT_ID      = 2026-018T
CENTER_NAME    = EARTH
REF_FRAME      = TEME
TIME_SYSTEM    = UTC
MEAN_ELEMENT_THEORY = SGP/SGP4

EPOCH          = 2026-02-17T12:00:01.999296
MEAN_MOTION    = 15.75179835
ECCENTRICITY   = .0001117
INCLINATION    = 97.2843
RA_OF_ASC_NODE = 113.3108
ARG_OF_PERICENTER = 75.7770
MEAN_ANOMALY   = 138.7516

EPHEMERIS_TYPE = 0
CLASSIFICATION_TYPE = U
NORAD_CAT_ID   = 67606
ELEMENT_SET_NO = 999
REV_AT_EPOCH   = 415
BSTAR          = -.32441E-3
MEAN_MOTION_DOT = -.48222E-3
MEAN_MOTION_DDOT = 0

CCSDS_OMM_VERS = 2.0
CREATION_DATE  = 
ORIGINATOR     = 

OBJECT_NAME    = STARLINK-36351
OBJECT_ID      = 2026-018U
CENTER_NAME    = EARTH
REF_FRAME      = TEME
TIME_SYSTEM    = UTC
MEAN_ELEMENT_THEORY = SGP/SGP4

EPOCH          = 2026-02-17T12:00:01.999296
MEAN_MOTION    = 15.77667224
ECCENTRICITY   = .0001518
INCLINATION    = 97.2841
RA_OF_ASC_NODE = 113.3431
ARG_OF_PERICENTER = 96.4377
MEAN_ANOMALY   = 193.4172

EPHEMERIS_TYPE = 0
CLASSIFICATION_TYPE = U
NORAD_CAT_ID   = 67607
ELEMENT_SET_NO = 999
REV_AT_EPOCH   = 415
BSTAR          = -.1284E-1
MEAN_MOTION_DOT = -.1867225E-1
MEAN_MOTION_DDOT = 0

CCSDS_OMM_VERS = 2.0
CREATION_DATE  = 
ORIGINATOR     = 

OBJECT_NAME    = STARLINK-36411
OBJECT_ID      = 2026-018V
CENTER_NAME    = EARTH
REF_FRAME      = TEME
TIME_SYSTEM    = UTC
MEAN_ELEMENT_THEORY = SGP/SGP4

EPOCH          = 2026-02-17T07:41:20.590080
MEAN_MOTION    = 15.80867758
ECCENTRICITY   = .0001279
INCLINATION    = 97.2839
RA_OF_ASC_NODE = 113.1560
ARG_OF_PERICENTER = 132.7615
MEAN_ANOMALY   = 227.3761

EPHEMERIS_TYPE = 0
CLASSIFICATION_TYPE = U
NORAD_CAT_ID   = 67608
ELEMENT_SET_NO = 999
REV_AT_EPOCH   = 410
BSTAR          = .95134E-3
MEAN_MOTION_DOT = .186472E-2
MEAN_MOTION_DDOT = 0

CCSDS_OMM_VERS = 2.0
CREATION_DATE  = 
ORIGINATOR     = 

OBJECT_NAME    = STARLINK-36312
OBJECT_ID      = 2026-018W
CENTER_NAME    = EARTH
REF_FRAME      = TEME
TIME_SYSTEM    = UTC
MEAN_ELEMENT_THEORY = SGP/SGP4

EPOCH          = 2026-02-17T12:00:01.999296
MEAN_MOTION    = 15.77131511
ECCENTRICITY   = .0001405
INCLINATION    = 97.2841
RA_OF_ASC_NODE = 113.3488
ARG_OF_PERICENTER = 84.0163
MEAN_ANOMALY   = 218.8385

EPHEMERIS_TYPE = 0
CLASSIFICATION_TYPE = U
NORAD_CAT_ID   = 67609
ELEMENT_SET_NO = 999
REV_AT_EPOCH   = 415
BSTAR          = -.12749E-1
MEAN_MOTION_DOT = -.1817104E-1
MEAN_MOTION_DDOT = 0

CCSDS_OMM_VERS = 2.0
CREATION_DATE  = 
ORIGINATOR     = 

OBJECT_NAME    = STARLINK-36387
OBJECT_ID      = 2026-018X
CENTER_NAME    = EARTH
REF_FRAME      = TEME
TIME_SYSTEM    = UTC
MEAN_ELEMENT_THEORY = SGP/SGP4

EPOCH          = 2026-02-17T07:37:33.225888
MEAN_MOTION    = 15.80879224
ECCENTRICITY   = .0001909
INCLINATION    = 97.2842
RA_OF_ASC_NODE = 113.1593
ARG_OF_PERICENTER = 119.2732
MEAN_ANOMALY   = 240.8727

EPHEMERIS_TYPE = 0
CLASSIFICATION_TYPE = U
NORAD_CAT_ID   = 67610
ELEMENT_SET_NO = 999
REV_AT_EPOCH   = 410
BSTAR          = .75177E-3
MEAN_MOTION_DOT = .146733E-2
MEAN_MOTION_DDOT = 0

CCSDS_OMM_VERS = 2.0
CREATION_DATE  = 
ORIGINATOR     = 

OBJECT_NAME    = STARLINK-36636
OBJECT_ID      = 2026-018Y
CENTER_NAME    = EARTH
REF_FRAME      = TEME
TIME_SYSTEM    = UTC
MEAN_ELEMENT_THEORY = SGP/SGP4

EPOCH          = 2026-02-17T12:00:01.999296
MEAN_MOTION    = 15.80776968
ECCENTRICITY   = .0001391
INCLINATION    = 97.2847
RA_OF_ASC_NODE = 113.3477
ARG_OF_PERICENTER = 97.6765
MEAN_ANOMALY   = 225.1694

EPHEMERIS_TYPE = 0
CLASSIFICATION_TYPE = U
NORAD_CAT_ID   = 67611
ELEMENT_SET_NO = 999
REV_AT_EPOCH   = 411
BSTAR          = .47933E-3
MEAN_MOTION_DOT = .92485E-3
MEAN_MOTION_DDOT = 0

CCSDS_OMM_VERS = 2.0
CREATION_DATE  = 
ORIGINATOR     = 

OBJECT_NAME    = STARLINK-36407
OBJECT_ID      = 2026-018Z
CENTER_NAME    = EARTH
REF_FRAME      = TEME
TIME_SYSTEM    = UTC
MEAN_ELEMENT_THEORY = SGP/SGP4

EPOCH          = 2026-02-17T10:37:00.301440
MEAN_MOTION    = 15.80980865
ECCENTRICITY   = .0000858
INCLINATION    = 97.2838
RA_OF_ASC_NODE = 113.2969
ARG_OF_PERICENTER = 184.5804
MEAN_ANOMALY   = 175.5456

EPHEMERIS_TYPE = 0
CLASSIFICATION_TYPE = U
NORAD_CAT_ID   = 67612
ELEMENT_SET_NO = 999
REV_AT_EPOCH   = 417
BSTAR          = .23718E-2
MEAN_MOTION_DOT = .483956E-2
MEAN_MOTION_DDOT = 0

CCSDS_OMM_VERS = 2.0
CREATION_DATE  = 
ORIGINATOR     = 

OBJECT_NAME    = STARLINK-36597
OBJECT_ID      = 2026-018AA
CENTER_NAME    = EARTH
REF_FRAME      = TEME
TIME_SYSTEM    = UTC
MEAN_ELEMENT_THEORY = SGP/SGP4

EPOCH          = 2026-02-17T07:33:13.453920
MEAN_MOTION    = 15.80853941
ECCENTRICITY   = .0001109
INCLINATION    = 97.2843
RA_OF_ASC_NODE = 113.1628
ARG_OF_PERICENTER = 84.9969
MEAN_ANOMALY   = 275.1426

EPHEMERIS_TYPE = 0
CLASSIFICATION_TYPE = U
NORAD_CAT_ID   = 67613
ELEMENT_SET_NO = 999
REV_AT_EPOCH   = 410
BSTAR          = .68718E-3
MEAN_MOTION_DOT = .133752E-2
MEAN_MOTION_DDOT = 0

CCSDS_OMM_VERS = 2.0
CREATION_DATE  = 
ORIGINATOR     = 

OBJECT_NAME    = NEONSAT-1A
OBJECT_ID      = 2026-019A
CENTER_NAME    = EARTH
REF_FRAME      = TEME
TIME_SYSTEM    = UTC
MEAN_ELEMENT_THEORY = SGP/SGP4

EPOCH          = 2026-02-17T09:42:23.571936
MEAN_MOTION    = 15.07617915
ECCENTRICITY   = .0012097
INCLINATION    = 97.4103
RA_OF_ASC_NODE = 172.7115
ARG_OF_PERICENTER = 240.5681
MEAN_ANOMALY   = 119.4341

EPHEMERIS_TYPE = 0
CLASSIFICATION_TYPE = U
NORAD_CAT_ID   = 67614
ELEMENT_SET_NO = 999
REV_AT_EPOCH   = 276
BSTAR          = .24988E-3
MEAN_MOTION_DOT = .375E-4
MEAN_MOTION_DDOT = 0

